{
  "type": "FeatureCollection",
  "features": [
    {
      "type": "Feature",
      "properties": {
        "norad_id": 35122,
        "name": "FENGYUN 1C DEB",
        "group": "fengyun-1c-debris",
        "lat": 14.372615466969098,
        "lon": -170.99441329061787,
        "alt_km": 828.401605347447,
        "timestamp": "2025-12-14T09:36:23.324194+00:00",
        "meta_object_name": "FENGYUN 1C DEB",
        "meta_object_id": "1999-025DLA",
        "meta_epoch": "2025-12-08T18:40:35.201280",
        "meta_mean_motion": 14.14118266,
        "meta_eccentricity": 0.00251505,
        "meta_inclination": 98.6722,
        "meta_ra_of_asc_node": 1.3085,
        "meta_arg_of_pericenter": 168.8347,
        "meta_mean_anomaly": 191.339,
        "meta_ephemeris_type": 0,
        "meta_classification_type": "U",
        "meta_norad_cat_id": 35122,
        "meta_element_set_no": 999,
        "meta_rev_at_epoch": 63811,
        "meta_bstar": 0.00051682639,
        "meta_mean_motion_dot": 9.44e-06,
        "meta_mean_motion_ddot": 0,
        "tle_line1": "1 35122U 99025DLA 25342.77818520  .00000944  00000+0  51683-3 0  9994",
        "tle_line2": "2 35122  98.6722   1.3085 0025150 168.8347 191.3390 14.14118266638115"
      },
      "geometry": {
        "type": "Point",
        "coordinates": [
          -170.99441329061787,
          14.372615466969098
        ]
      }
    },
    {
      "type": "Feature",
      "properties": {
        "norad_id": 35123,
        "name": "FENGYUN 1C DEB",
        "group": "fengyun-1c-debris",
        "lat": 19.697841995592988,
        "lon": 167.8471066928103,
        "alt_km": 788.7148935234945,
        "timestamp": "2025-12-14T09:36:23.324204+00:00",
        "meta_object_name": "FENGYUN 1C DEB",
        "meta_object_id": "1999-025DLB",
        "meta_epoch": "2025-12-11T05:38:24.394848",
        "meta_mean_motion": 14.24211611,
        "meta_eccentricity": 0.00496586,
        "meta_inclination": 99.1224,
        "meta_ra_of_asc_node": 167.8609,
        "meta_arg_of_pericenter": 80.4433,
        "meta_mean_anomaly": 280.2351,
        "meta_ephemeris_type": 0,
        "meta_classification_type": "U",
        "meta_norad_cat_id": 35123,
        "meta_element_set_no": 999,
        "meta_rev_at_epoch": 61052,
        "meta_bstar": 0.0008568562,
        "meta_mean_motion_dot": 1.954e-05,
        "meta_mean_motion_ddot": 0,
        "tle_line1": "1 35123U 99025DLB 25345.23500457  .00001954  00000+0  85686-3 0  9998",
        "tle_line2": "2 35123  99.1224 167.8609 0049658  80.4433 280.2351 14.24211611610522"
      },
      "geometry": {
        "type": "Point",
        "coordinates": [
          167.8471066928103,
          19.697841995592988
        ]
      }
    },
    {
      "type": "Feature",
      "properties": {
        "norad_id": 35125,
        "name": "FENGYUN 1C DEB",
        "group": "fengyun-1c-debris",
        "lat": 23.039448229499754,
        "lon": -177.1165017845087,
        "alt_km": 806.2073363773025,
        "timestamp": "2025-12-14T09:36:23.324214+00:00",
        "meta_object_name": "FENGYUN 1C DEB",
        "meta_object_id": "1999-025DLD",
        "meta_epoch": "2025-12-08T07:05:36.118752",
        "meta_mean_motion": 14.33084151,
        "meta_eccentricity": 0.00521413,
        "meta_inclination": 98.2165,
        "meta_ra_of_asc_node": 353.5679,
        "meta_arg_of_pericenter": 308.0323,
        "meta_mean_anomaly": 51.6162,
        "meta_ephemeris_type": 0,
        "meta_classification_type": "U",
        "meta_norad_cat_id": 35125,
        "meta_element_set_no": 999,
        "meta_rev_at_epoch": 31218,
        "meta_bstar": 0.0020544677,
        "meta_mean_motion_dot": 5.68e-05,
        "meta_mean_motion_ddot": 0,
        "tle_line1": "1 35125U 99025DLD 25342.29555693  .00005680  00000+0  20545-2 0  9997",
        "tle_line2": "2 35125  98.2165 353.5679 0052141 308.0323  51.6162 14.33084151312185"
      },
      "geometry": {
        "type": "Point",
        "coordinates": [
          -177.1165017845087,
          23.039448229499754
        ]
      }
    },
    {
      "type": "Feature",
      "properties": {
        "norad_id": 35130,
        "name": "FENGYUN 1C DEB",
        "group": "fengyun-1c-debris",
        "lat": 29.622752737160027,
        "lon": 18.42341768577389,
        "alt_km": 561.4488907456089,
        "timestamp": "2025-12-14T09:36:23.324226+00:00",
        "meta_object_name": "FENGYUN 1C DEB",
        "meta_object_id": "1999-025DLJ",
        "meta_epoch": "2025-12-11T07:19:07.697280",
        "meta_mean_motion": 14.99763081,
        "meta_eccentricity": 0.00092349,
        "meta_inclination": 99.0329,
        "meta_ra_of_asc_node": 189.6428,
        "meta_arg_of_pericenter": 75.1163,
        "meta_mean_anomaly": 285.1078,
        "meta_ephemeris_type": 0,
        "meta_classification_type": "U",
        "meta_norad_cat_id": 35130,
        "meta_element_set_no": 999,
        "meta_rev_at_epoch": 64892,
        "meta_bstar": 0.017340807,
        "meta_mean_motion_dot": 0.00221179,
        "meta_mean_motion_ddot": 0,
        "tle_line1": "1 35130U 99025DLJ 25345.30495020  .00221179  00000+0  17341-1 0  9997",
        "tle_line2": "2 35130  99.0329 189.6428 0009234  75.1163 285.1078 14.99763081648923"
      },
      "geometry": {
        "type": "Point",
        "coordinates": [
          18.42341768577389,
          29.622752737160027
        ]
      }
    },
    {
      "type": "Feature",
      "properties": {
        "norad_id": 35135,
        "name": "FENGYUN 1C DEB",
        "group": "fengyun-1c-debris",
        "lat": 6.8987646657574935,
        "lon": 178.2039239627991,
        "alt_km": 835.1584938798587,
        "timestamp": "2025-12-14T09:36:23.324236+00:00",
        "meta_object_name": "FENGYUN 1C DEB",
        "meta_object_id": "1999-025DLP",
        "meta_epoch": "2025-12-10T06:52:44.806944",
        "meta_mean_motion": 14.22529436,
        "meta_eccentricity": 0.0080993,
        "meta_inclination": 98.565,
        "meta_ra_of_asc_node": 353.1608,
        "meta_arg_of_pericenter": 291.6551,
        "meta_mean_anomaly": 67.6016,
        "meta_ephemeris_type": 0,
        "meta_classification_type": "U",
        "meta_norad_cat_id": 35135,
        "meta_element_set_no": 999,
        "meta_rev_at_epoch": 87789,
        "meta_bstar": 0.00073581,
        "meta_mean_motion_dot": 1.655e-05,
        "meta_mean_motion_ddot": 0,
        "tle_line1": "1 35135U 99025DLP 25344.28662971  .00001655  00000+0  73581-3 0  9994",
        "tle_line2": "2 35135  98.5650 353.1608 0080993 291.6551  67.6016 14.22529436877899"
      },
      "geometry": {
        "type": "Point",
        "coordinates": [
          178.2039239627991,
          6.8987646657574935
        ]
      }
    },
    {
      "type": "Feature",
      "properties": {
        "norad_id": 35139,
        "name": "FENGYUN 1C DEB",
        "group": "fengyun-1c-debris",
        "lat": -74.88044534428239,
        "lon": 139.58298249057842,
        "alt_km": 788.8038588516711,
        "timestamp": "2025-12-14T09:36:23.324248+00:00",
        "meta_object_name": "FENGYUN 1C DEB",
        "meta_object_id": "1999-025DLT",
        "meta_epoch": "2025-11-29T06:46:18.583392",
        "meta_mean_motion": 14.21054019,
        "meta_eccentricity": 0.00685814,
        "meta_inclination": 98.5841,
        "meta_ra_of_asc_node": 338.8823,
        "meta_arg_of_pericenter": 336.9878,
        "meta_mean_anomaly": 22.8231,
        "meta_ephemeris_type": 0,
        "meta_classification_type": "U",
        "meta_norad_cat_id": 35139,
        "meta_element_set_no": 999,
        "meta_rev_at_epoch": 63962,
        "meta_bstar": 0.00042081079,
        "meta_mean_motion_dot": 8.92e-06,
        "meta_mean_motion_ddot": 0,
        "tle_line1": "1 35139U 99025DLT 25333.28215953  .00000892  00000+0  42081-3 0  9993",
        "tle_line2": "2 35139  98.5841 338.8823 0068581 336.9878  22.8231 14.21054019639626"
      },
      "geometry": {
        "type": "Point",
        "coordinates": [
          139.58298249057842,
          -74.88044534428239
        ]
      }
    },
    {
      "type": "Feature",
      "properties": {
        "norad_id": 35140,
        "name": "FENGYUN 1C DEB",
        "group": "fengyun-1c-debris",
        "lat": -11.119645436670767,
        "lon": -28.620200992942863,
        "alt_km": 637.4992527346403,
        "timestamp": "2025-12-14T09:36:23.324260+00:00",
        "meta_object_name": "FENGYUN 1C DEB",
        "meta_object_id": "1999-025DLU",
        "meta_epoch": "2025-12-13T04:56:09.488832",
        "meta_mean_motion": 14.21347484,
        "meta_eccentricity": 0.0290603,
        "meta_inclination": 98.4462,
        "meta_ra_of_asc_node": 328.5616,
        "meta_arg_of_pericenter": 325.2882,
        "meta_mean_anomaly": 32.963,
        "meta_ephemeris_type": 0,
        "meta_classification_type": "U",
        "meta_norad_cat_id": 35140,
        "meta_element_set_no": 999,
        "meta_rev_at_epoch": 87285,
        "meta_bstar": 0.00035818837,
        "meta_mean_motion_dot": 1.149e-05,
        "meta_mean_motion_ddot": 0,
        "tle_line1": "1 35140U 99025DLU 25347.20566538  .00001149  00000+0  35819-3 0  9997",
        "tle_line2": "2 35140  98.4462 328.5616 0290603 325.2882  32.9630 14.21347484872850"
      },
      "geometry": {
        "type": "Point",
        "coordinates": [
          -28.620200992942863,
          -11.119645436670767
        ]
      }
    }
  ]
}